VABB,2019-08-10 00:00,VABB 100000Z 23010G20KT 2500 HZ SCT018 FEW025TCU BKN090 28/25 Q1000 NOSIG
VABB,2019-08-10 00:30,VABB 100030Z 24010G20KT 2500 HZ SCT018 FEW025TCU BKN090 28/25 Q1000 TEMPO 1500 RA
VABB,2019-08-10 01:00,VABB 100100Z 25011G21KT 2500 HZ SCT012 SCT018 BKN090 28/25 Q1000 TEMPO 1500 RA
VABB,2019-08-10 01:30,VABB 100130Z 24014G24KT 2500 HZ FEW012 SCT018 BKN090 28/25 Q1001 NOSIG
VABB,2019-08-10 02:00,VABB 100200Z 24009G19KT 2500 HZ FEW012 SCT018 BKN090 28/26 Q1001 NOSIG
